KUIPER-00072            
1 64819U 25151D   25218.87794695  .00045288  00000+0  12981-2 0  9994
2 64819  51.8765 183.4516 0004657 224.2269 135.8345 15.35443313  3317
KUIPER-00073            
1 64820U 25151E   25218.91668981 -.00000897  00000+0 -16709-4 0  9992
2 64820  51.8795 183.3041 0004651 217.3439 346.8259 15.32140061  3397
KUIPER-00074            
1 64821U 25151F   25218.94053007 -.00002911  00000+0 -71747-4 0  9995
2 64821  51.8767 183.1212 0004868 216.0748 143.9911 15.35658207  3327
KUIPER-00075            
1 64822U 25151G   25218.93959028  .00020873  00000+0  60087-3 0  9992
2 64822  51.8773 183.1234 0004707 213.5546 146.5142 15.35717075  3323
KUIPER-00076            
1 64823U 25151H   25218.94210486  .00012561  00000+0  36974-3 0  9995
2 64823  51.8768 183.1320 0004842 217.9737 142.0908 15.35424359  3325
KUIPER-00077            
1 64824U 25151J   25218.94442682  .00012720  00000+0  37466-3 0  9995
2 64824  51.8784 183.1546 0005351 230.5770 129.4743 15.35389986  3320
KUIPER-00078            
1 64825U 25151K   25218.94396170  .00023382  00000+0  67752-3 0  9993
2 64825  51.8776 183.1477 0005453 234.1844 125.8636 15.35436565  3327
KUIPER-00079            
1 64826U 25151L   25218.93509748  .00019049  00000+0  54310-3 0  9991
2 64826  51.8771 183.0910 0005781 206.9743 153.0944 15.36076213  4522
KUIPER-00080            
1 64827U 25151M   25218.93913845  .00024917  00000+0  71314-3 0  9992
2 64827  51.8775 183.1205 0004774 216.9332 143.1326 15.35789145  3326
KUIPER-00082            
1 64828U 25151N   25218.93766215  .00012873  00000+0  37318-3 0  9994
2 64828  51.8770 183.1049 0005152 213.2452 146.8211 15.35880967  3329
KUIPER-00083            
1 64829U 25151P   25218.91668981  .00027897  00000+0  80542-3 0  9993
2 64829  51.8769 183.2639 0005063 218.9920 355.5399 15.35450884  4516
KUIPER-00084            
1 64830U 25151Q   25218.91668981  .00024647  00000+0  90663-3 0  9990
2 64830  51.8815 183.5959 0006376 223.8581 180.7327 15.27719268  3045
KUIPER-00085            
1 64831U 25151R   25218.93575892  .00021978  00000+0  62666-3 0  9997
2 64831  51.8769 183.0949 0005654 209.8835 150.1829 15.35978610  3328
KUIPER-00086            
1 64832U 25151S   25218.94502845  .00024416  00000+0  70922-3 0  9991
2 64832  51.8773 183.1523 0005260 234.1632 125.8866 15.35333690  3325
KUIPER-00087            
1 64833U 25151T   25218.93890991  .00026253  00000+0  75185-3 0  9990
2 64833  51.8770 183.1179 0005122 209.0428 151.0274 15.35737567  3326
KUIPER-00089            
1 64834U 25151U   25218.91668981  .00027836  00000+0  80406-3 0  9991
2 64834  51.8780 183.2711 0005334 229.2005 345.4092 15.35435453  4407
KUIPER-00090            
1 64835U 25151V   25218.94601346  .00009821  00000+0  29350-3 0  9992
2 64835  51.8778 183.1621 0005409 237.6529 122.3933 15.35215463  3324
KUIPER-00091            
1 64836U 25151W   25218.93657468  .00008525  00000+0  25128-3 0  9997
2 64836  51.8766 183.0977 0005240 207.0636 153.0078 15.35838092  3328
KUIPER-00092            
1 64837U 25151X   25218.93939165  .00019921  00000+0  57323-3 0  9999
2 64837  51.8766 183.1145 0005204 217.6106 142.4517 15.35758130  4534
KUIPER-00093            
1 64838U 25151Y   25218.94250850  .00020301  00000+0  58820-3 0  9995
2 64838  51.8782 183.1422 0005062 223.5531 136.5056 15.35530864  3321
KUIPER-00094            
1 64839U 25151Z   25218.93886539  .00019058  00000+0  54937-3 0  9996
2 64839  51.8767 183.1115 0004858 218.7808 141.2830 15.35735862  3327
2025-135BT              
1 64840U 25135BT  25218.91615993  .00001550  00000+0  15645-3 0  9993
2 64840  97.7485 332.6058 0004525 313.5840  46.5003 14.92505256  7005
2025-135BU              
1 64841U 25135BU  25218.92023475  .00006687  00000+0  65061-3 0  9996
2 64841  97.7503 332.6057 0008623 183.4575 176.6587 14.92839763  7003
STARLINK-34723          
1 64842U 25152A   25218.91668981 -.01724514  00000+0 -22571-1 0  9998
2 64842  97.6028  71.8877 0001776  74.7185  56.6940 15.61457528  3679
STARLINK-34725          
1 64843U 25152B   25218.91668981 -.01721909  00000+0 -22535-1 0  9994
2 64843  97.6028  71.8887 0001750  73.7572  59.5765 15.61456087  3566
STARLINK-34709          
1 64844U 25152C   25218.91668981 -.01687180  00000+0 -22481-1 0  9997
2 64844  97.6026  71.8891 0001641  68.9920  66.2658 15.61452168  3676
STARLINK-34706          
1 64845U 25152D   25218.91668981 -.01733241  00000+0 -22696-1 0  9996
2 64845  97.6025  71.8915 0001738  69.9329  67.2408 15.61460424  3560
STARLINK-34736          
1 64846U 25152E   25218.91668981 -.01725524  00000+0 -22586-1 0  9990
2 64846  97.6026  71.8916 0001823  73.9099  65.1849 15.61457161  3567
STARLINK-34746          
1 64847U 25152F   25218.91668981 -.01727020  00000+0 -22608-1 0  9999
2 64847  97.6027  71.8927 0001757  71.9567  69.0588 15.61457951  3565
STARLINK-34748          
1 64848U 25152G   25218.91668981 -.01731858  00000+0 -22678-1 0  9991
2 64848  97.6025  71.8939 0001746  71.9432  70.9949 15.61458818  3561
STARLINK-34756          
1 64849U 25152H   25218.91668981 -.01788912  00000+0 -23488-1 0  9995
2 64849  97.6037  71.8923 0001815  82.2139  62.6385 15.61486613  3560
STARLINK-34757          
1 64850U 25152J   25218.91668981 -.01786277  00000+0 -23450-1 0  9998
2 64850  97.6038  71.8936 0001969  84.5622  62.2094 15.61484240  3566
STARLINK-34722          
1 64851U 25152K   25218.91668981 -.01686731  00000+0 -22470-1 0  9994
2 64851  97.6025  71.8952 0001891  69.1739  79.5248 15.61453258  3357
STARLINK-34564          
1 64852U 25152L   25218.91668981 -.01687630  00000+0 -22484-1 0  9999
2 64852  97.6031  71.8964 0001851  77.7871  72.8332 15.61454246  3567
STARLINK-34676          
1 64853U 25152M   25218.91668981 -.01722896  00000+0 -22549-1 0  9996
2 64853  97.6029  71.8972 0001815  72.1690  80.3712 15.61455969  3561
STARLINK-34682          
1 64854U 25152N   25218.91668981 -.01729551  00000+0 -22642-1 0  9996
2 64854  97.6029  71.8991 0001919  76.7485  77.7117 15.61459037  3569
STARLINK-34631          
1 64855U 25152P   25218.91668981 -.01735261  00000+0 -22725-1 0  9994
2 64855  97.6029  71.8995 0001752  76.1704  80.2113 15.61460875  3564
STARLINK-34578          
1 64856U 25152Q   25218.91668981 -.01735935  00000+0 -22735-1 0  9994
2 64856  97.6027  71.9008 0001740  78.4031  79.8988 15.61461385  3565
STARLINK-34683          
1 64857U 25152R   25218.91668981 -.01731241  00000+0 -22669-1 0  9997
2 64857  97.6026  71.9012 0001825  78.8818  81.3429 15.61457895  3560
STARLINK-34654          
1 64858U 25152S   25218.91668981 -.01735208  00000+0 -22723-1 0  9996
2 64858  97.6027  71.9023 0001909  74.9749  87.1685 15.61460655  3563
STARLINK-34575          
1 64859U 25152T   25218.91668981 -.01781162  00000+0 -23378-1 0  9994
2 64859  97.6039  71.9009 0001710  68.0956  95.9646 15.61483076  3561
STARLINK-34570          
1 64860U 25152U   25218.91668981 -.01727081  00000+0 -22606-1 0  9999
2 64860  97.6025  71.9034 0001929  77.5259  88.4574 15.61458858  3566
STARLINK-34651          
1 64861U 25152V   25218.91668981 -.01723945  00000+0 -22563-1 0  9997
2 64861  97.6029  71.9041 0001952  77.5578  90.3478 15.61456128  3562
STARLINK-34684          
1 64862U 25152W   25218.91668981 -.01723009  00000+0 -22550-1 0  9995
2 64862  97.6027  71.9056 0001963  70.8332  98.9933 15.61455185  3565
STARLINK-34690          
1 64863U 25152X   25218.91668981 -.01741586  00000+0 -22814-1 0  9999
2 64863  97.6033  71.9073 0001920  75.5202  96.2259 15.61463264  3562
STARLINK-34628          
1 64864U 25152Y   25218.91668981 -.01730665  00000+0 -22660-1 0  9995
2 64864  97.6029  71.9090 0001958  72.5008 101.1666 15.61457476  3453
STARLINK-34544          
1 64865U 25152Z   25218.91668981 -.01725598  00000+0 -22588-1 0  9994
2 64865  97.6029  71.9093 0001881  76.7181  98.8723 15.61455231  3453
O3B MPOWER A            
1 64866U 25153A   25216.04933964  .00000045  00000+0 -10540-2 0  9991
2 64866   8.7040  72.7484 1866856 214.4291 131.9558  7.18924737   893
O3B MPOWER B            
1 64867U 25153B   25215.73691733  .00000047  00000+0 -44399-3 0  9994
2 64867   9.0893  73.3062 1896449 214.2066 132.0093  7.24232134   865
FALCON 9 R/B            
1 64868U 25153C   25218.68501763  .00000047  00000+0 -13776-2 0  9999
2 64868   9.7220  69.0843 1940526 223.4841 119.4959  7.32307310  1088
LIDE                    
1 64869U 25154A   25218.75404256  .00002631  00000+0  26768-3 0  9994
2 64869  97.7144 284.5397 0005782 182.8117 177.3070 14.91592144  2080
TRACERS 1               
1 64870U 25154B   25218.88280626  .00001244  00000+0  12771-3 0  9991
2 64870  97.7136 284.6775 0004762 210.3626 149.7318 14.92138362  2103
2025-154C               
1 64871U 25154C   25217.13863346  .00002672  00000+0  26708-3 0  9996
2 64871  97.7128 282.9687 0005071 213.9644 146.1251 14.92297413  1841
2025-154D               
1 64872U 25154D   25218.88183499  .00004677  00000+0  46358-3 0  9994
2 64872  97.7124 284.6766 0004421 216.2481 143.8439 14.92264321  2090
TRACERS 2               
1 64873U 25154E   25218.74626633  .00001188  00000+0  12151-3 0  9990
2 64873  97.7141 284.5498 0005520 221.5709 138.5091 14.92396685  2087
PEXT (BARD)             
1 64874U 25154F   25218.91219341  .00004914  00000+0  24837-3 0  9998
2 64874  97.4408 284.6234 0001613 328.1903  31.9233 15.17518752  2138
REAL                    
1 64875U 25154G   25218.70642511  .00010864  00000+0  52989-3 0  9995
2 64875  97.4466 284.4477 0001973 116.8197 243.3239 15.18478651  2102
IONOSFERA-M 3           
1 64876U 25155A   25218.90639776  .00030837  00000+0  13984-1 0  9990
2 64876  98.5543 184.4769 0002453  64.9152 295.2281 14.21748421  1753
IONOSFERA-M 4           
1 64877U 25155B   25218.90870686  .00000147  00000+0  87017-4 0  9990
2 64877  98.5554 184.4742 0001835  69.1028 291.0346 14.21189666  1755
